start=new Date('2023-05-06T00:00:00.000Z').valueOf();
sats=[{"TIME_SYSTEM":"UTC","ARG_OF_PERICENTER":"69.4108","REV_AT_EPOCH":"7933","MEAN_ELEMENT_THEORY":"SGP4","INCLINATION":"53.2150","OBJECT_TYPE":"PAYLOAD","SITE":"AFWTR","BSTAR":"0.00028028000000","MEAN_MOTION_DOT":"0.00004176","MEAN_MOTION_DDOT":"0.0000000000000","EPOCH":"2023-05-05T06:20:48.009120","SEMIMAJOR_AXIS":"6917.889","FILE":"3901460","RCS_SIZE":"LARGE","MEAN_MOTION":"15.08837101","TLE_LINE2":"2 50190  53.2150 225.2797 0000503  69.4108 290.6938 15.08837101 79336","TLE_LINE1":"1 50190U 21125AL  23125.26444455  .00004176  00000-0  28028-3 0  9994","ECCENTRICITY":"0.00005030","PERIOD":"95.438","GP_ID":"231282844","PERIAPSIS":"539.406","OBJECT_NAME":"STARLINK-3268","COUNTRY_CODE":"US","LAUNCH_DATE":"2021-12-18","REF_FRAME":"TEME","DECAY_DATE":null,"RA_OF_ASC_NODE":"225.2797","ELEMENT_SET_NO":"999","CENTER_NAME":"EARTH","EPHEMERIS_TYPE":"0","OBJECT_ID":"2021-125AL","NORAD_CAT_ID":"50190","MEAN_ANOMALY":"290.6938","CLASSIFICATION_TYPE":"U","APOAPSIS":"540.102"},{"ELEMENT_SET_NO":"999","RA_OF_ASC_NODE":"244.9444","APOAPSIS":"540.590","NORAD_CAT_ID":"50191","OBJECT_ID":"2021-125AM","CLASSIFICATION_TYPE":"U","MEAN_ANOMALY":"282.6538","EPHEMERIS_TYPE":"0","CENTER_NAME":"EARTH","PERIAPSIS":"538.936","DECAY_DATE":null,"LAUNCH_DATE":"2021-12-18","REF_FRAME":"TEME","COUNTRY_CODE":"US","OBJECT_NAME":"STARLINK-3273","ECCENTRICITY":"0.00011950","TLE_LINE1":"1 50191U 21125AM  23125.33988655  .00001192  00000-0  92957-4 0  9996","TLE_LINE2":"2 50191  53.2160 244.9444 0001195  77.4588 282.6538 15.08834180 76466","MEAN_MOTION":"15.08834180","SEMIMAJOR_AXIS":"6917.898","FILE":"3901460","RCS_SIZE":"LARGE","SITE":"AFWTR","MEAN_MOTION_DOT":"0.00001192","BSTAR":"0.00009295700000","MEAN_MOTION_DDOT":"0.0000000000000","EPOCH":"2023-05-05T08:09:26.197920","GP_ID":"231282845","PERIOD":"95.438","TIME_SYSTEM":"UTC","ARG_OF_PERICENTER":"77.4588","OBJECT_TYPE":"PAYLOAD","INCLINATION":"53.2160","REV_AT_EPOCH":"7646","MEAN_ELEMENT_THEORY":"SGP4"},{"REV_AT_EPOCH":"7668","MEAN_ELEMENT_THEORY":"SGP4","OBJECT_TYPE":"PAYLOAD","INCLINATION":"53.2159","ARG_OF_PERICENTER":"183.3010","TIME_SYSTEM":"UTC","GP_ID":"231249293","PERIOD":"95.438","RCS_SIZE":"LARGE","FILE":"3901165","SEMIMAJOR_AXIS":"6917.899","MEAN_MOTION_DDOT":"0.0000000000000","EPOCH":"2023-05-04T23:53:57.139008","SITE":"AFWTR","BSTAR":"-0.00013630000000","MEAN_MOTION_DOT":"-0.00002456","ECCENTRICITY":"0.00003080","TLE_LINE2":"2 50192  53.2159 226.4833 0000308 183.3010 176.7980 15.08833999 76689","MEAN_MOTION":"15.08833999","TLE_LINE1":"1 50192U 21125AN  23124.99580022 -.00002456  00000-0 -13630-3 0  9990","COUNTRY_CODE":"US","OBJECT_NAME":"STARLINK-3259","DECAY_DATE":null,"REF_FRAME":"TEME","LAUNCH_DATE":"2021-12-18","PERIAPSIS":"539.551","EPHEMERIS_TYPE":"0","CENTER_NAME":"EARTH","APOAPSIS":"539.977","CLASSIFICATION_TYPE":"U","MEAN_ANOMALY":"176.7980","OBJECT_ID":"2021-125AN","NORAD_CAT_ID":"50192","ELEMENT_SET_NO":"999","RA_OF_ASC_NODE":"226.4833"},{"OBJECT_TYPE":"PAYLOAD","INCLINATION":"53.2155","MEAN_ELEMENT_THEORY":"SGP4","REV_AT_EPOCH":"7929","TIME_SYSTEM":"UTC","ARG_OF_PERICENTER":"83.3446","GP_ID":"231249280","PERIOD":"95.437","ECCENTRICITY":"0.00008210","MEAN_MOTION":"15.08842446","TLE_LINE2":"2 50193  53.2155 226.4357 0000821  83.3446 276.7640 15.08842446 79290","TLE_LINE1":"1 50193U 21125AP  23125.00684204  .00002146  00000-0  15285-3 0  9993","RCS_SIZE":"LARGE","FILE":"3901175","SEMIMAJOR_AXIS":"6917.873","SITE":"AFWTR","BSTAR":"0.00015285000000","MEAN_MOTION_DOT":"0.00002146","EPOCH":"2023-05-05T00:09:51.152256","MEAN_MOTION_DDOT":"0.0000000000000","DECAY_DATE":null,"LAUNCH_DATE":"2021-12-18","REF_FRAME":"TEME","COUNTRY_CODE":"US","OBJECT_NAME":"STARLINK-3261","PERIAPSIS":"539.170","APOAPSIS":"540.306","NORAD_CAT_ID":"50193","OBJECT_ID":"2021-125AP","CLASSIFICATION_TYPE":"U","MEAN_ANOMALY":"276.7640","EPHEMERIS_TYPE":"0","CENTER_NAME":"EARTH","ELEMENT_SET_NO":"999","RA_OF_ASC_NODE":"226.4357"},{"ARG_OF_PERICENTER":"97.7986","TIME_SYSTEM":"UTC","MEAN_ELEMENT_THEORY":"SGP4","REV_AT_EPOCH":"7933","INCLINATION":"53.2145","OBJECT_TYPE":"PAYLOAD","MEAN_MOTION_DDOT":"0.0000000000000","EPOCH":"2023-05-05T06:11:34.443456","MEAN_MOTION_DOT":"-0.00000230","SITE":"AFWTR","BSTAR":"0.00000363180000","RCS_SIZE":"LARGE","FILE":"3901460","SEMIMAJOR_AXIS":"6917.885","TLE_LINE2":"2 50194  53.2145 225.3199 0000849  97.7986 262.3103 15.08838504 79330","TLE_LINE1":"1 50194U 21125AQ  23125.25803754 -.00000230  00000-0  36318-5 0  9999","MEAN_MOTION":"15.08838504","ECCENTRICITY":"0.00008490","PERIOD":"95.438","GP_ID":"231283078","PERIAPSIS":"539.163","OBJECT_NAME":"STARLINK-3269","COUNTRY_CODE":"US","REF_FRAME":"TEME","LAUNCH_DATE":"2021-12-18","DECAY_DATE":null,"ELEMENT_SET_NO":"999","RA_OF_ASC_NODE":"225.3199","CENTER_NAME":"EARTH","EPHEMERIS_TYPE":"0","MEAN_ANOMALY":"262.3103","CLASSIFICATION_TYPE":"U","NORAD_CAT_ID":"50194","OBJECT_ID":"2021-125AQ","APOAPSIS":"540.337"},{"OBJECT_TYPE":"PAYLOAD","INCLINATION":"53.2160","REV_AT_EPOCH":"7944","MEAN_ELEMENT_THEORY":"SGP4","TIME_SYSTEM":"UTC","ARG_OF_PERICENTER":"70.9995","GP_ID":"231295034","PERIOD":"95.437","ECCENTRICITY":"0.00010060","TLE_LINE1":"1 50195U 21125AR  23125.99676229  .00002196  00000-0  15598-3 0  9993","TLE_LINE2":"2 50195  53.2160 221.9949 0001006  70.9995 289.1106 15.08843144 79440","MEAN_MOTION":"15.08843144","RCS_SIZE":"LARGE","FILE":"3901970","SEMIMAJOR_AXIS":"6917.871","SITE":"AFWTR","MEAN_MOTION_DOT":"0.00002196","BSTAR":"0.00015598000000","EPOCH":"2023-05-05T23:55:20.261856","MEAN_MOTION_DDOT":"0.0000000000000","DECAY_DATE":null,"LAUNCH_DATE":"2021-12-18","REF_FRAME":"TEME","COUNTRY_CODE":"US","OBJECT_NAME":"STARLINK-3266","PERIAPSIS":"539.040","APOAPSIS":"540.432","OBJECT_ID":"2021-125AR","NORAD_CAT_ID":"50195","CLASSIFICATION_TYPE":"U","MEAN_ANOMALY":"289.1106","EPHEMERIS_TYPE":"0","CENTER_NAME":"EARTH","ELEMENT_SET_NO":"999","RA_OF_ASC_NODE":"221.9949"},{"PERIAPSIS":"538.929","DECAY_DATE":null,"REF_FRAME":"TEME","LAUNCH_DATE":"2021-12-18","COUNTRY_CODE":"US","OBJECT_NAME":"STARLINK-3263","ELEMENT_SET_NO":"999","RA_OF_ASC_NODE":"225.0782","APOAPSIS":"540.577","MEAN_ANOMALY":"265.5017","CLASSIFICATION_TYPE":"U","OBJECT_ID":"2021-125AS","NORAD_CAT_ID":"50196","EPHEMERIS_TYPE":"0","CENTER_NAME":"EARTH","ARG_OF_PERICENTER":"94.6111","TIME_SYSTEM":"UTC","OBJECT_TYPE":"PAYLOAD","INCLINATION":"53.2177","MEAN_ELEMENT_THEORY":"SGP4","REV_AT_EPOCH":"7934","ECCENTRICITY":"0.00011910","TLE_LINE2":"2 50196  53.2177 225.0782 0001191  94.6111 265.5017 15.08837580 79342","MEAN_MOTION":"15.08837580","TLE_LINE1":"1 50196U 21125AS  23125.32060610  .00001383  00000-0  10498-3 0  9993","FILE":"3901460","SEMIMAJOR_AXIS":"6917.888","RCS_SIZE":"LARGE","EPOCH":"2023-05-05T07:41:40.367040","MEAN_MOTION_DDOT":"0.0000000000000","SITE":"AFWTR","MEAN_MOTION_DOT":"0.00001383","BSTAR":"0.00010498000000","GP_ID":"231283083","PERIOD":"95.438"},{"PERIAPSIS":"539.030","LAUNCH_DATE":"2021-12-18","REF_FRAME":"TEME","DECAY_DATE":null,"OBJECT_NAME":"STARLINK-3267","COUNTRY_CODE":"US","RA_OF_ASC_NODE":"225.0307","ELEMENT_SET_NO":"999","OBJECT_ID":"2021-125AT","NORAD_CAT_ID":"50197","CLASSIFICATION_TYPE":"U","MEAN_ANOMALY":"248.2602","APOAPSIS":"540.452","CENTER_NAME":"EARTH","EPHEMERIS_TYPE":"0","TIME_SYSTEM":"UTC","ARG_OF_PERICENTER":"111.8499","INCLINATION":"53.2170","OBJECT_TYPE":"PAYLOAD","REV_AT_EPOCH":"7934","MEAN_ELEMENT_THEORY":"SGP4","TLE_LINE2":"2 50197  53.2170 225.0307 0001028 111.8499 248.2602 15.08841433 79349","MEAN_MOTION":"15.08841433","TLE_LINE1":"1 50197U 21125AT  23125.31963849  .00001151  00000-0  90406-4 0  9990","ECCENTRICITY":"0.00010280","MEAN_MOTION_DOT":"0.00001151","SITE":"AFWTR","BSTAR":"0.00009040600000","EPOCH":"2023-05-05T07:40:16.765536","MEAN_MOTION_DDOT":"0.0000000000000","RCS_SIZE":"LARGE","FILE":"3901460","SEMIMAJOR_AXIS":"6917.876","PERIOD":"95.437","GP_ID":"231282843"},{"ELEMENT_SET_NO":"999","RA_OF_ASC_NODE":"222.1268","CLASSIFICATION_TYPE":"U","MEAN_ANOMALY":"270.5895","OBJECT_ID":"2021-125AU","NORAD_CAT_ID":"50198","APOAPSIS":"540.556","CENTER_NAME":"EARTH","EPHEMERIS_TYPE":"0","PERIAPSIS":"538.897","REF_FRAME":"TEME","LAUNCH_DATE":"2021-12-18","DECAY_DATE":null,"OBJECT_NAME":"STARLINK-3264","COUNTRY_CODE":"US","TLE_LINE2":"2 50198  53.2153 222.1268 0001199  89.5235 270.5895 15.08846174 79443","MEAN_MOTION":"15.08846174","TLE_LINE1":"1 50198U 21125AU  23125.96732345  .00004759  00000-0  31682-3 0  9994","ECCENTRICITY":"0.00011990","EPOCH":"2023-05-05T23:12:56.746080","MEAN_MOTION_DDOT":"0.0000000000000","SITE":"AFWTR","BSTAR":"0.00031682000000","MEAN_MOTION_DOT":"0.00004759","RCS_SIZE":"LARGE","FILE":"3901970","SEMIMAJOR_AXIS":"6917.862","PERIOD":"95.437","GP_ID":"231294960","ARG_OF_PERICENTER":"89.5235","TIME_SYSTEM":"UTC","INCLINATION":"53.2153","OBJECT_TYPE":"PAYLOAD","MEAN_ELEMENT_THEORY":"SGP4","REV_AT_EPOCH":"7944"},{"PERIAPSIS":"539.117","REF_FRAME":"TEME","LAUNCH_DATE":"2021-12-18","DECAY_DATE":null,"OBJECT_NAME":"STARLINK-3270","COUNTRY_CODE":"US","ELEMENT_SET_NO":"999","RA_OF_ASC_NODE":"224.2907","MEAN_ANOMALY":"275.8493","CLASSIFICATION_TYPE":"U","OBJECT_ID":"2021-125AV","NORAD_CAT_ID":"50199","APOAPSIS":"540.361","CENTER_NAME":"EARTH","EPHEMERIS_TYPE":"0","ARG_OF_PERICENTER":"84.2602","TIME_SYSTEM":"UTC","INCLINATION":"53.2160","OBJECT_TYPE":"PAYLOAD","MEAN_ELEMENT_THEORY":"SGP4","REV_AT_EPOCH":"7936","TLE_LINE1":"1 50199U 21125AV  23125.48524274  .00003455  00000-0  23506-3 0  9990","TLE_LINE2":"2 50199  53.2160 224.2907 0000899  84.2602 275.8493 15.08841979 79362","MEAN_MOTION":"15.08841979","ECCENTRICITY":"0.00008990","EPOCH":"2023-05-05T11:38:44.972736","MEAN_MOTION_DDOT":"0.0000000000000","BSTAR":"0.00023506000000","SITE":"AFWTR","MEAN_MOTION_DOT":"0.00003455","RCS_SIZE":"LARGE","FILE":"3901701","SEMIMAJOR_AXIS":"6917.874","PERIOD":"95.437","GP_ID":"231288738"}];
